NORAD_CAT_ID,OBJECT_NAME,OBJECT_TYPE,EPOCH,MEAN_MOTION,ECCENTRICITY,INCLINATION,RA_OF_ASC_NODE,ARG_OF_PERICENTER,MEAN_ANOMALY,BSTAR,MEAN_MOTION_DOT,MEAN_MOTION_DDOT,TLE_LINE0,TLE_LINE1,TLE_LINE2,SEMIMAJOR_AXIS,PERIOD,APOGEE,PERIGEE,DECAYED
50191.0,STARLINK-3273,PAYLOAD,2024-07-09 03:58:02,15.0884359,0.0001416,53.2177,110.8961,90.8369,269.2786,0.00011478,1.539e-05,0.0,0 STARLINK-3273,1 50191U 21125AM  24191.16530747  .00001539  00000-0  11478-3 0  9999,2 50191  53.2177 110.8961 0001416  90.8369 269.2786 15.08843590141500,6917.869,95.437,540.714,538.755,0.0
50191.0,STARLINK-3273,PAYLOAD,2024-07-09 11:54:57,15.08851863,0.0001415,53.2176,109.4085,76.8102,283.3048,0.00015676,2.209e-05,0.0,0 STARLINK-3273,1 50191U 21125AM  24191.49649931  .00002209  00000-0  15676-3 0  9990,2 50191  53.2176 109.4085 0001415  76.8102 283.3048 15.08851863141553,6917.844,95.437,540.688,538.73,0.0
50191.0,STARLINK-3273,PAYLOAD,2024-07-09 18:16:32,15.08828437,0.0001317,53.2164,108.2184,99.4728,260.6413,-0.00014095,-2.53e-05,0.0,0 STARLINK-3273,1 50191U 21125AM  24191.76148357 -.00002530  00000-0 -14095-3 0  9999,2 50191  53.2164 108.2184 0001317  99.4728 260.6413 15.08828437141592,6917.916,95.438,540.692,538.87,0.0
50191.0,STARLINK-3273,PAYLOAD,2024-07-10 02:13:22,15.08894239,0.0001294,53.2173,106.7306,105.9447,254.1688,0.00035982,5.452e-05,0.0,0 STARLINK-3273,1 50191U 21125AM  24192.09262429  .00005452  00000-0  35982-3 0  9995,2 50191  53.2173 106.7306 0001294 105.9447 254.1688 15.08894239141647,6917.715,95.434,540.475,538.684,0.0
50191.0,STARLINK-3273,PAYLOAD,2024-07-10 11:45:41,15.08882666,0.0001665,53.2175,104.9463,73.6839,286.4336,0.00024715,3.652e-05,0.0,0 STARLINK-3273,1 50191U 21125AM  24192.49006722  .00003652  00000-0  24715-3 0  9993,2 50191  53.2175 104.9463 0001665  73.6839 286.4336 15.08882666141707,6917.75,95.435,540.767,538.463,0.0
50191.0,STARLINK-3273,PAYLOAD,2024-07-10 18:07:19,15.08810034,0.0001278,53.2177,103.7562,87.7552,272.3587,-0.00014202,-2.545e-05,0.0,0 STARLINK-3273,1 50191U 21125AM  24192.75508129 -.00002545  00000-0 -14202-3 0  9992,2 50191  53.2177 103.7562 0001278  87.7552 272.3587 15.08810034141740,6917.972,95.439,540.721,538.953,0.0
50191.0,STARLINK-3273,PAYLOAD,2024-07-10 22:53:28,15.08815889,0.0001386,53.2178,102.864,86.4834,273.6317,-8.7308e-05,-1.676e-05,0.0,0 STARLINK-3273,1 50191U 21125AM  24192.95379887 -.00001676  00000-0 -87308-4 0  9993,2 50191  53.2178 102.8640 0001386  86.4834 273.6317 15.08815889144850,6917.954,95.439,540.778,538.86,0.0
50191.0,STARLINK-3273,PAYLOAD,2024-07-11 00:28:51,15.08823291,0.0001464,53.2173,102.5691,77.8617,282.2539,-0.00015663,-2.779e-05,0.0,0 STARLINK-3273,1 50191U 21125AM  24193.02003737 -.00002779  00000-0 -15663-3 0  9999,2 50191  53.2173 102.5691 0001464  77.8617 282.2539 15.08823291141785,6917.931,95.439,540.809,538.784,0.0
50191.0,STARLINK-3273,PAYLOAD,2024-07-12 20:59:39,15.08833658,0.0001468,53.2162,94.2431,78.3092,281.8065,0.00045305,6.928e-05,0.0,0 STARLINK-3273,1 50191U 21125AM  24194.87475710  .00006928  00000-0  45305-3 0  9991,2 50191  53.2162  94.2431 0001468  78.3092 281.8065 15.08833658142068,6917.9,95.438,540.78,538.749,0.0
50191.0,STARLINK-3273,PAYLOAD,2024-07-12 22:35:02,15.08834651,0.0001448,53.2165,93.9458,77.9467,282.1688,0.00046135,7.061e-05,0.0,0 STARLINK-3273,1 50191U 21125AM  24194.94099781  .00007061  00000-0  46135-3 0  9990,2 50191  53.2165  93.9458 0001448  77.9467 282.1688 15.08834651145157,6917.897,95.438,540.763,538.76,0.0
50191.0,STARLINK-3273,PAYLOAD,2024-07-13 09:42:43,15.08856727,0.0001355,53.2172,91.8654,85.5427,274.572,0.00070917,0.00011022,0.0,0 STARLINK-3273,1 50191U 21125AM  24195.40467003  .00011022  00000-0  70917-3 0  9995,2 50191  53.2172  91.8654 0001355  85.5427 274.5720 15.08856727142144,6917.829,95.436,540.632,538.757,0.0
50191.0,STARLINK-3273,PAYLOAD,2024-07-13 20:50:25,15.08836705,0.000142,53.2171,89.7825,98.8472,261.2681,4.1479e-05,3.72e-06,0.0,0 STARLINK-3273,1 50191U 21125AM  24195.86835573  .00000372  00000-0  41479-4 0  9994,2 50191  53.2171  89.7825 0001420  98.8472 261.2681 15.08836705142210,6917.89,95.438,540.738,538.773,0.0
50191.0,STARLINK-3273,PAYLOAD,2024-07-13 22:25:49,15.08837,0.0001458,53.2168,89.4858,99.0861,261.0296,5.1845e-05,5.37e-06,0.0,0 STARLINK-3273,1 50191U 21125AM  24195.93459592  .00000537  00000-0  51845-4 0  9996,2 50191  53.2168  89.4858 0001458  99.0861 261.0296 15.08837000145307,6917.89,95.438,540.763,538.746,0.0
50191.0,STARLINK-3273,PAYLOAD,2024-07-14 09:33:30,15.08853192,0.0001527,53.2179,87.4062,101.6285,258.4879,0.00049148,7.545e-05,0.0,0 STARLINK-3273,1 50191U 21125AM  24196.39827162  .00007545  00000-0  49148-3 0  9997,2 50191  53.2179  87.4062 0001527 101.6285 258.4879 15.08853192142293,6917.84,95.437,540.761,538.649,0.0
50191.0,STARLINK-3273,PAYLOAD,2024-07-14 20:41:12,15.0883992,0.0001562,53.2182,85.3239,107.2209,252.8954,0.00015942,2.25e-05,0.0,0 STARLINK-3273,1 50191U 21125AM  24196.86195481  .00002250  00000-0  15942-3 0  9994,2 50191  53.2182  85.3239 0001562 107.2209 252.8954 15.08839920142360,6917.881,95.438,540.826,538.665,0.0
50191.0,STARLINK-3273,PAYLOAD,2024-07-14 22:16:36,15.08843443,0.0001379,53.2174,85.0262,99.7896,260.3252,0.00033767,5.091e-05,0.0,0 STARLINK-3273,1 50191U 21125AM  24196.92819463  .00005091  00000-0  33767-3 0  9995,2 50191  53.2174  85.0262 0001379  99.7896 260.3252 15.08843443145450,6917.87,95.437,540.689,538.781,0.0
50191.0,STARLINK-3273,PAYLOAD,2024-07-15 09:24:17,15.08874851,0.0001159,53.2169,82.9437,79.1031,281.0092,0.0018497,0.00029301,0.0,0 STARLINK-3273,1 50191U 21125AM  24197.39186932  .00029301  00000-0  18497-2 0  9997,2 50191  53.2169  82.9437 0001159  79.1031 281.0092 15.08874851142448,6917.774,95.435,540.441,538.837,0.0
50191.0,STARLINK-3273,PAYLOAD,2024-07-15 20:32:00,15.08836188,0.0001219,53.2159,80.8629,87.9873,272.1259,0.00116,0.0001822,0.0,0 STARLINK-3273,1 50191U 21125AM  24197.85555614  .00018220  00000-0  11600-2 0  9992,2 50191  53.2159  80.8629 0001219  87.9873 272.1259 15.08836188142510,6917.892,95.438,540.6,538.914,0.0
50191.0,STARLINK-3273,PAYLOAD,2024-07-15 22:07:23,15.08835906,0.0001243,53.2158,80.5649,85.5176,274.5959,0.0012259,0.00019274,0.0,0 STARLINK-3273,1 50191U 21125AM  24197.92179588  .00019274  00000-0  12259-2 0  9993,2 50191  53.2158  80.5649 0001243  85.5176 274.5959 15.08835906145608,6917.893,95.438,540.618,538.898,0.0
50191.0,STARLINK-3273,PAYLOAD,2024-07-15 23:42:46,15.08833485,0.0001419,53.2168,80.2684,86.9574,273.1581,0.0014337,0.00022599,0.0,0 STARLINK-3273,1 50191U 21125AM  24197.98803759  .00022599  00000-0  14337-2 0  9996,2 50191  53.2168  80.2684 0001419  86.9574 273.1581 15.08833485145614,6917.9,95.438,540.747,538.784,0.0
50191.0,STARLINK-3273,PAYLOAD,2024-07-16 20:22:47,15.08867942,0.0001312,53.2169,76.4018,90.6759,269.4383,0.0020613,0.00032695,0.0,0 STARLINK-3273,1 50191U 21125AM  24198.84915667  .00032695  00000-0  20613-2 0  9996,2 50191  53.2169  76.4018 0001312  90.6759 269.4383 15.08867942142667,6917.795,95.436,540.568,538.752,0.0
50191.0,STARLINK-3273,PAYLOAD,2024-07-16 21:58:10,15.08858096,0.0001252,53.2161,76.1016,98.1902,261.9232,0.0012571,0.00019785,0.0,0 STARLINK-3273,1 50191U 21125AM  24198.91539530  .00019785  00000-0  12571-2 0  9994,2 50191  53.2161  76.1016 0001252  98.1902 261.9232 15.08858096145753,6917.825,95.436,540.556,538.824,0.0
50191.0,STARLINK-3273,PAYLOAD,2024-07-17 01:08:56,15.08860051,0.0001418,53.2169,75.5115,81.8088,278.3065,0.0010297,0.00016147,0.0,0 STARLINK-3273,1 50191U 21125AM  24199.04787483  .00016147  00000-0  10297-2 0  9993,2 50191  53.2169  75.5115 0001418  81.8088 278.3065 15.08860051142692,6917.819,95.436,540.665,538.703,0.0
50191.0,STARLINK-3273,PAYLOAD,2024-07-17 09:05:51,15.08872866,0.000142,53.2166,74.0221,72.5883,287.5264,0.0010261,0.00016095,0.0,0 STARLINK-3273,1 50191U 21125AM  24199.37906774  .00016095  00000-0  10261-2 0  9998,2 50191  53.2166  74.0221 0001420  72.5883 287.5264 15.08872866145822,6917.78,95.435,540.627,538.663,0.0
50191.0,STARLINK-3273,PAYLOAD,2024-07-17 20:13:33,15.08836356,0.0001439,53.217,71.9425,86.5555,273.5602,0.00014808,2.069e-05,0.0,0 STARLINK-3273,1 50191U 21125AM  24199.84275454  .00002069  00000-0  14808-3 0  9992,2 50191  53.2170  71.9425 0001439  86.5555 273.5602 15.08836356142811,6917.892,95.438,540.752,538.761,0.0
50191.0,STARLINK-3273,PAYLOAD,2024-07-17 21:48:57,15.08822789,0.000121,53.2166,71.6433,84.9684,275.1447,0.0013182,0.00020743,0.0,0 STARLINK-3273,1 50191U 21125AM  24199.90899597  .00020743  00000-0  13182-2 0  9991,2 50191  53.2166  71.6433 0001210  84.9684 275.1447 15.08822789145907,6917.933,95.439,540.635,538.961,0.0
50191.0,STARLINK-3273,PAYLOAD,2024-07-18 08:56:39,15.08849875,0.0001288,53.2175,69.5604,94.5252,265.5887,0.0012017,0.00018894,0.0,0 STARLINK-3273,1 50191U 21125AM  24200.37267501  .00018894  00000-0  12017-2 0  9999,2 50191  53.2175  69.5604 0001288  94.5252 265.5887 15.08849875145979,6917.85,95.437,540.606,538.824,0.0
50191.0,STARLINK-3273,PAYLOAD,2024-07-18 21:39:44,15.08835712,0.0001412,53.2171,67.1835,84.9036,275.2117,0.00036118,5.464e-05,0.0,0 STARLINK-3273,1 50191U 21125AM  24200.90260088  .00005464  00000-0  36118-3 0  9999,2 50191  53.2171  67.1835 0001412  84.9036 275.2117 15.08835712146056,6917.893,95.438,540.735,538.782,0.0
50191.0,STARLINK-3273,PAYLOAD,2024-07-19 21:30:31,15.08844078,0.0001454,53.2178,62.7204,107.5919,252.5232,0.00042086,6.417e-05,0.0,0 STARLINK-3273,1 50191U 21125AM  24201.89620222  .00006417  00000-0  42086-3 0  9998,2 50191  53.2178  62.7204 0001454 107.5919 252.5232 15.08844078146200,6917.868,95.437,540.739,538.727,0.0
50191.0,STARLINK-3273,PAYLOAD,2024-07-20 00:41:18,15.08845034,0.000145,53.2178,62.1259,107.0487,253.0664,0.00043741,6.681e-05,0.0,0 STARLINK-3273,1 50191U 21125AM  24202.02868215  .00006681  00000-0  43741-3 0  9992,2 50191  53.2178  62.1259 0001450 107.0487 253.0664 15.08845034143143,6917.865,95.437,540.733,538.727,0.0
